ORBCOMM FM114 [+]       
1 41179U 15081A   17345.85065613 -.00000037  00000-0  29814-4 0  9990
2 41179  47.0026 231.1811 0002495  36.9717 323.1339 14.54647704104767
